NORAD_CAT_ID,OBJECT_NAME,OBJECT_TYPE,EPOCH,MEAN_MOTION,ECCENTRICITY,INCLINATION,RA_OF_ASC_NODE,ARG_OF_PERICENTER,MEAN_ANOMALY,BSTAR,MEAN_MOTION_DOT,MEAN_MOTION_DDOT,TLE_LINE0,TLE_LINE1,TLE_LINE2,SEMIMAJOR_AXIS,PERIOD,APOGEE,PERIGEE,DECAYED
51814.0,STARLINK-3599,PAYLOAD,2023-08-25 03:15:18,15.0884723,0.0001205,53.2158,173.0738,83.8924,276.2205,7.5547e-05,9.15e-06,0.0,0 STARLINK-3599,1 51814U 22017AY  23237.13563495  .00000915  00000-0  75547-4 0  9991,2 51814  53.2158 173.0738 0001205  83.8924 276.2205 15.08847230 84055,6917.858,95.437,540.557,538.89,0.0
51814.0,STARLINK-3599,PAYLOAD,2023-08-25 19:09:11,15.08833374,0.0001196,53.2167,170.1017,83.5294,276.5834,0.00023814,3.503e-05,0.0,0 STARLINK-3599,1 51814U 22017AY  23237.79804623  .00003503  00000-0  23814-3 0  9999,2 51814  53.2167 170.1017 0001196  83.5294 276.5834 15.08833374 84278,6917.901,95.438,540.593,538.938,0.0
51814.0,STARLINK-3599,PAYLOAD,2023-08-26 04:41:30,15.08835146,0.0001476,53.2164,168.3174,67.0723,293.0425,0.00017513,2.5e-05,0.0,0 STARLINK-3599,1 51814U 22017AY  23238.19548827  .00002500  00000-0  17513-3 0  9990,2 51814  53.2164 168.3174 0001476  67.0723 293.0425 15.08835146 84216,6917.895,95.438,540.781,538.739,0.0
51814.0,STARLINK-3599,PAYLOAD,2023-08-27 01:21:30,15.08846257,0.0001425,53.2174,164.4504,78.5711,281.5441,6.1051e-05,6.84e-06,0.0,0 STARLINK-3599,1 51814U 22017AY  23239.05660548  .00000684  00000-0  61051-4 0  9999,2 51814  53.2174 164.4504 0001425  78.5711 281.5441 15.08846257 84461,6917.861,95.437,540.712,538.74,0.0
51814.0,STARLINK-3599,PAYLOAD,2023-08-27 04:32:16,15.08845353,0.0001282,53.2174,163.8553,86.7891,273.3248,0.00013445,1.853e-05,0.0,0 STARLINK-3599,1 51814U 22017AY  23239.18908388  .00001853  00000-0  13445-3 0  9992,2 51814  53.2174 163.8553 0001282  86.7891 273.3248 15.08845353 84368,6917.864,95.437,540.616,538.842,0.0
51814.0,STARLINK-3599,PAYLOAD,2023-08-28 04:23:03,15.08846001,0.0001461,53.218,159.3935,88.5699,271.546,5.9156e-05,6.54e-06,0.0,0 STARLINK-3599,1 51814U 22017AY  23240.18268504  .00000654  00000-0  59156-4 0  9991,2 51814  53.2180 159.3935 0001461  88.5699 271.5460 15.08846001 84631,6917.862,95.437,540.738,538.716,0.0
51814.0,STARLINK-3599,PAYLOAD,2023-08-28 12:19:59,15.08843769,0.0001453,53.2174,157.907,93.598,266.5178,7.0652e-05,8.37e-06,0.0,0 STARLINK-3599,1 51814U 22017AY  23240.51388553  .00000837  00000-0  70652-4 0  9992,2 51814  53.2174 157.9070 0001453  93.5980 266.5178 15.08843769 84568,6917.869,95.437,540.739,538.729,0.0
51814.0,STARLINK-3599,PAYLOAD,2023-08-29 04:13:50,15.08847038,0.0001447,53.2177,154.9329,99.0617,261.0539,5.8482e-05,6.43e-06,0.0,0 STARLINK-3599,1 51814U 22017AY  23241.17628315  .00000643  00000-0  58482-4 0  9990,2 51814  53.2177 154.9329 0001447  99.0617 261.0539 15.08847038 84661,6917.859,95.437,540.725,538.723,0.0
51814.0,STARLINK-3599,PAYLOAD,2023-08-30 00:53:52,15.08832048,0.0001389,53.2185,151.0675,105.8378,254.2767,-1.1076e-05,-4.64e-06,0.0,0 STARLINK-3599,1 51814U 22017AY  23242.03741587 -.00000464  00000-0 -11076-4 0  9994,2 51814  53.2185 151.0675 0001389 105.8378 254.2767 15.08832048 84917,6917.905,95.438,540.731,538.809,0.0
51814.0,STARLINK-3599,PAYLOAD,2023-08-30 10:26:10,15.08846307,0.0001448,53.2176,149.2852,96.9609,263.1548,-7.1089e-05,-1.419e-05,0.0,0 STARLINK-3599,1 51814U 22017AY  23242.43484921 -.00001419  00000-0 -71089-4 0  9995,2 51814  53.2176 149.2852 0001448  96.9609 263.1548 15.08846307 84971,6917.861,95.437,540.728,538.724,0.0
51814.0,STARLINK-3599,PAYLOAD,2023-08-31 03:55:25,15.08848744,0.0001306,53.2177,146.0132,80.9447,279.1693,8.1029e-05,1.002e-05,0.0,0 STARLINK-3599,1 51814U 22017AY  23243.16348455  .00001002  00000-0  81029-4 0  9998,2 51814  53.2177 146.0132 0001306  80.9447 279.1693 15.08848744 84968,6917.854,95.437,540.622,538.815,0.0
51814.0,STARLINK-3599,PAYLOAD,2023-09-01 02:10:50,15.0883329,0.0001499,53.2177,141.8509,83.7366,276.3797,6.0157e-05,6.69e-06,0.0,0 STARLINK-3599,1 51814U 22017AY  23244.09086024  .00000669  00000-0  60157-4 0  9999,2 51814  53.2177 141.8509 0001499  83.7366 276.3797 15.08833290 85227,6917.901,95.438,540.803,538.729,0.0
51814.0,STARLINK-3599,PAYLOAD,2023-09-01 10:07:45,15.08839028,0.0001444,53.2179,140.3642,84.4172,275.6985,9.2724e-05,1.188e-05,0.0,0 STARLINK-3599,1 51814U 22017AY  23244.42205716  .00001188  00000-0  92724-4 0  9999,2 51814  53.2179 140.3642 0001444  84.4172 275.6985 15.08839028 85152,6917.883,95.438,540.747,538.749,0.0
51814.0,STARLINK-3599,PAYLOAD,2023-09-01 18:04:41,15.08841006,0.0001773,53.2161,138.8766,84.2314,275.8881,0.00014298,1.988e-05,0.0,0 STARLINK-3599,1 51814U 22017AY  23244.75325630  .00001988  00000-0  14298-3 0  9990,2 51814  53.2161 138.8766 0001773  84.2314 275.8881 15.08841006 85328,6917.877,95.437,540.969,538.516,0.0
51814.0,STARLINK-3599,PAYLOAD,2023-09-02 09:58:31,15.08857925,0.0001634,53.2163,135.9033,92.4607,267.6572,-3.9226e-05,-9.13e-06,0.0,0 STARLINK-3599,1 51814U 22017AY  23245.41564537 -.00000913  00000-0 -39226-4 0  9993,2 51814  53.2163 135.9033 0001634  92.4607 267.6572 15.08857925 85421,6917.826,95.436,540.821,538.56,0.0
51814.0,STARLINK-3599,PAYLOAD,2023-09-02 17:55:28,15.08835019,0.0001976,53.2186,134.4186,93.3493,266.7725,0.00017094,2.433e-05,0.0,0 STARLINK-3599,1 51814U 22017AY  23245.74685685  .00002433  00000-0  17094-3 0  9992,2 51814  53.2186 134.4186 0001976  93.3493 266.7725 15.08835019 85476,6917.896,95.438,541.128,538.394,0.0
51814.0,STARLINK-3599,PAYLOAD,2023-09-03 09:49:19,15.08839672,0.0001522,53.2162,131.4438,90.5341,269.5826,4.2325e-05,3.86e-06,0.0,0 STARLINK-3599,1 51814U 22017AY  23246.40925764  .00000386  00000-0  42325-4 0  9992,2 51814  53.2162 131.4438 0001522  90.5341 269.5826 15.08839672 85455,6917.881,95.438,540.799,538.693,0.0
51814.0,STARLINK-3599,PAYLOAD,2023-09-04 01:43:10,15.0884698,0.000206,53.2176,128.4675,108.2657,251.856,-5.0298e-05,-1.089e-05,0.0,0 STARLINK-3599,1 51814U 22017AY  23247.07165367 -.00001089  00000-0 -50298-4 0  9992,2 51814  53.2176 128.4675 0002060 108.2657 251.8560 15.08846980 85677,6917.859,95.437,541.149,538.299,0.0
51814.0,STARLINK-3599,PAYLOAD,2023-09-04 09:40:07,15.08831975,0.00014,53.2168,126.9817,98.4378,261.6772,0.0001014,1.326e-05,0.0,0 STARLINK-3599,1 51814U 22017AY  23247.40285935  .00001326  00000-0  10140-3 0  9996,2 51814  53.2168 126.9817 0001400  98.4378 261.6772 15.08831975 85724,6917.905,95.438,540.738,538.801,0.0
51814.0,STARLINK-3599,PAYLOAD,2023-09-05 01:33:58,15.08846436,0.0001679,53.2168,124.008,103.5258,256.5921,-6.2469e-05,-1.282e-05,0.0,0 STARLINK-3599,1 51814U 22017AY  23248.06525655 -.00001282  00000-0 -62469-4 0  9990,2 51814  53.2168 124.0080 0001679 103.5258 256.5921 15.08846436 85826,6917.861,95.437,540.887,538.564,0.0
51814.0,STARLINK-3599,PAYLOAD,2023-09-06 01:24:44,15.08847873,0.0001373,53.2169,119.5473,98.5461,261.5686,0.00015664,2.206e-05,0.0,0 STARLINK-3599,1 51814U 22017AY  23249.05884945  .00002206  00000-0  15664-3 0  9999,2 51814  53.2169 119.5473 0001373  98.5461 261.5686 15.08847873 85855,6917.856,95.437,540.671,538.772,0.0
51814.0,STARLINK-3599,PAYLOAD,2023-09-06 22:04:46,15.08839284,0.0001156,53.2169,115.6825,94.9792,265.1332,9.95e-05,1.296e-05,0.0,0 STARLINK-3599,1 51814U 22017AY  23249.91997708  .00001296  00000-0  99500-4 0  9996,2 51814  53.2169 115.6825 0001156  94.9792 265.1332 15.08839284 85988,6917.883,95.438,540.547,538.948,0.0
51814.0,STARLINK-3599,PAYLOAD,2023-09-07 17:09:23,15.08865835,8.24e-05,53.2167,112.1153,90.6879,269.4207,-0.0003554,-5.943e-05,0.0,0 STARLINK-3599,1 51814U 22017AY  23250.71485555 -.00005943  00000-0 -35540-3 0  9996,2 51814  53.2167 112.1153 0000824  90.6879 269.4207 15.08865835 86106,6917.801,95.436,540.236,539.096,0.0
51814.0,STARLINK-3599,PAYLOAD,2023-09-07 21:55:32,15.08857346,9.38e-05,53.217,111.2228,84.7124,275.3976,-0.00026248,-4.465e-05,0.0,0 STARLINK-3599,1 51814U 22017AY  23250.91357555 -.00004465  00000-0 -26248-3 0  9999,2 51814  53.2170 111.2228 0000938  84.7124 275.3976 15.08857346 86136,6917.827,95.436,540.341,539.043,0.0
51814.0,STARLINK-3599,PAYLOAD,2023-09-08 18:35:34,15.088374,8.62e-05,53.218,107.3561,81.545,278.564,8.2315e-05,1.023e-05,0.0,0 STARLINK-3599,1 51814U 22017AY  23251.77469937  .00001023  00000-0  82315-4 0  9995,2 51814  53.2180 107.3561 0000862  81.5450 278.5640 15.08837400 86385,6917.888,95.438,540.35,539.157,0.0
51814.0,STARLINK-3599,PAYLOAD,2023-09-08 21:46:20,15.08841929,9.47e-05,53.2169,106.7624,89.1598,270.9502,0.00011739,1.581e-05,0.0,0 STARLINK-3599,1 51814U 22017AY  23251.90717609  .00001581  00000-0  11739-3 0  9992,2 51814  53.2169 106.7624 0000947  89.1598 270.9502 15.08841929 86289,6917.874,95.437,540.395,539.084,0.0
51814.0,STARLINK-3599,PAYLOAD,2023-09-09 00:57:06,15.08845425,9.65e-05,53.2167,106.1678,93.1613,266.949,0.00014124,1.961e-05,0.0,0 STARLINK-3599,1 51814U 22017AY  23252.03965321  .00001961  00000-0  14124-3 0  9996,2 51814  53.2167 106.1678 0000965  93.1613 266.9490 15.08845425 86425,6917.864,95.437,540.396,539.061,0.0
51814.0,STARLINK-3599,PAYLOAD,2023-09-09 07:18:39,15.08833736,0.000108,53.2169,104.9782,88.8641,271.2475,4.8916e-05,4.91e-06,0.0,0 STARLINK-3599,1 51814U 22017AY  23252.30462394  .00000491  00000-0  48916-4 0  9992,2 51814  53.2169 104.9782 0001080  88.8641 271.2475 15.08833736 86468,6917.9,95.438,540.512,539.017,0.0
51814.0,STARLINK-3599,PAYLOAD,2023-09-09 23:12:30,15.08841242,0.000111,53.2171,102.0045,84.3508,275.7611,0.00013693,1.892e-05,0.0,0 STARLINK-3599,1 51814U 22017AY  23252.96702141  .00001892  00000-0  13693-3 0  9990,2 51814  53.2171 102.0045 0001110  84.3508 275.7611 15.08841242 86562,6917.877,95.437,540.509,538.974,0.0
51814.0,STARLINK-3599,PAYLOAD,2023-09-10 13:30:58,15.08840143,0.0001185,53.2165,99.3284,82.607,277.5057,2.8005e-05,1.58e-06,0.0,0 STARLINK-3599,1 51814U 22017AY  23253.56318236  .00000158  00000-0  28005-4 0  9993,2 51814  53.2165  99.3284 0001185  82.6070 277.5057 15.08840143 86535,6917.88,95.438,540.565,538.925,0.0
